[{"OBJECT_NAME":"SL-16 R/B","OBJECT_ID":"1993-059B","EPOCH":"2026-03-19T03:31:00.643872","MEAN_MOTION":14.17233387,"ECCENTRICITY":0.00179843,"INCLINATION":70.9931,"RA_OF_ASC_NODE":351.1852,"ARG_OF_PERICENTER":202.757,"MEAN_ANOMALY":157.2759,"EPHEMERIS_TYPE":0,"CLASSIFICATION_TYPE":"U","NORAD_CAT_ID":22803,"ELEMENT_SET_NO":999,"REV_AT_EPOCH":68087,"BSTAR":0.000144922,"MEAN_MOTION_DOT":2.45e-6,"MEAN_MOTION_DDOT":0},{"OBJECT_NAME":"ARIANE 40 R/B","OBJECT_ID":"1993-061H","EPOCH":"2026-03-19T04:41:31.822080","MEAN_MOTION":14.32865783,"ECCENTRICITY":0.00096325,"INCLINATION":98.4897,"RA_OF_ASC_NODE":146.8948,"ARG_OF_PERICENTER":253.6087,"MEAN_ANOMALY":106.4039,"EPHEMERIS_TYPE":0,"CLASSIFICATION_TYPE":"U","NORAD_CAT_ID":22830,"ELEMENT_SET_NO":999,"REV_AT_EPOCH":69546,"BSTAR":8.2805535e-5,"MEAN_MOTION_DOT":1.83e-6,"MEAN_MOTION_DDOT":0},{"OBJECT_NAME":"COSMOS 2278","OBJECT_ID":"1994-023A","EPOCH":"2026-03-19T06:53:02.958720","MEAN_MOTION":14.14378816,"ECCENTRICITY":0.0008699,"INCLINATION":71.0541,"RA_OF_ASC_NODE":155.0209,"ARG_OF_PERICENTER":356.7493,"MEAN_ANOMALY":3.3571,"EPHEMERIS_TYPE":0,"CLASSIFICATION_TYPE":"U","NORAD_CAT_ID":23087,"ELEMENT_SET_NO":999,"REV_AT_EPOCH":64616,"BSTAR":-6.3404052e-5,"MEAN_MOTION_DOT":-1.69e-6,"MEAN_MOTION_DDOT":0},{"OBJECT_NAME":"SL-16 R/B","OBJECT_ID":"1994-023B","EPOCH":"2026-03-19T06:11:58.794432","MEAN_MOTION":14.15010092,"ECCENTRICITY":0.00055235,"INCLINATION":70.9993,"RA_OF_ASC_NODE":50.7901,"ARG_OF_PERICENTER":276.2599,"MEAN_ANOMALY":83.7894,"EPHEMERIS_TYPE":0,"CLASSIFICATION_TYPE":"U","NORAD_CAT_ID":23088,"ELEMENT_SET_NO":999,"REV_AT_EPOCH":64744,"BSTAR":2.5595685e-5,"MEAN_MOTION_DOT":2.0e-8,"MEAN_MOTION_DDOT":0},{"OBJECT_NAME":"SL-16 R/B","OBJECT_ID":"1994-074B","EPOCH":"2026-03-19T07:41:36.866112","MEAN_MOTION":14.794188,"ECCENTRICITY":0.00065405,"INCLINATION":97.7096,"RA_OF_ASC_NODE":108.7479,"ARG_OF_PERICENTER":177.2032,"MEAN_ANOMALY":193.4785,"EPHEMERIS_TYPE":0,"CLASSIFICATION_TYPE":"U","NORAD_CAT_ID":23343,"ELEMENT_SET_NO":999,"REV_AT_EPOCH":68867,"BSTAR":6.1890288e-5,"MEAN_MOTION_DOT":4.13e-6,"MEAN_MOTION_DDOT":0},{"OBJECT_NAME":"SL-16 R/B","OBJECT_ID":"1994-077B","EPOCH":"2026-03-19T03:58:23.647872","MEAN_MOTION":14.15565426,"ECCENTRICITY":0.00025404,"INCLINATION":70.9849,"RA_OF_ASC_NODE":332.5554,"ARG_OF_PERICENTER":200.9898,"MEAN_ANOMALY":159.1121,"EPHEMERIS_TYPE":0,"CLASSIFICATION_TYPE":"U","NORAD_CAT_ID":23405,"ELEMENT_SET_NO":999,"REV_AT_EPOCH":61757,"BSTAR":0.00018383814,"MEAN_MOTION_DOT":3.12e-6,"MEAN_MOTION_DDOT":0},{"OBJECT_NAME":"ARIANE 40+ R/B","OBJECT_ID":"1995-021B","EPOCH":"2026-03-19T04:45:26.092224","MEAN_MOTION":14.3977908,"ECCENTRICITY":0.00079227,"INCLINATION":98.4479,"RA_OF_ASC_NODE":149.5513,"ARG_OF_PERICENTER":111.6928,"MEAN_ANOMALY":306.9549,"EPHEMERIS_TYPE":0,"CLASSIFICATION_TYPE":"U","NORAD_CAT_ID":23561,"ELEMENT_SET_NO":999,"REV_AT_EPOCH":62061,"BSTAR":9.5063413e-5,"MEAN_MOTION_DOT":2.55e-6,"MEAN_MOTION_DDOT":0},{"OBJECT_NAME":"SL-16 R/B","OBJECT_ID":"1995-058B","EPOCH":"2026-03-19T07:32:37.773312","MEAN_MOTION":14.15500595,"ECCENTRICITY":0.00103436,"INCLINATION":71.0221,"RA_OF_ASC_NODE":160.0497,"ARG_OF_PERICENTER":108.1939,"MEAN_ANOMALY":252.0311,"EPHEMERIS_TYPE":0,"CLASSIFICATION_TYPE":"U","NORAD_CAT_ID":23705,"ELEMENT_SET_NO":999,"REV_AT_EPOCH":56921,"BSTAR":5.1414275e-5,"MEAN_MOTION_DOT":5.3e-7,"MEAN_MOTION_DDOT":0},{"OBJECT_NAME":"SL-16 R/B","OBJECT_ID":"1996-051B","EPOCH":"2026-03-19T07:14:46.890240","MEAN_MOTION":14.12418204,"ECCENTRICITY":0.00142664,"INCLINATION":70.7598,"RA_OF_ASC_NODE":154.8949,"ARG_OF_PERICENTER":132.9673,"MEAN_ANOMALY":227.2645,"EPHEMERIS_TYPE":0,"CLASSIFICATION_TYPE":"U","NORAD_CAT_ID":24298,"ELEMENT_SET_NO":999,"REV_AT_EPOCH":52300,"BSTAR":7.6738795e-5,"MEAN_MOTION_DOT":9.3e-7,"MEAN_MOTION_DDOT":0},{"OBJECT_NAME":"ORBVIEW 2 (SEASTAR)","OBJECT_ID":"1997-037A","EPOCH":"2026-03-19T07:34:24.157632","MEAN_MOTION":14.35501518,"ECCENTRICITY":0.00028063,"INCLINATION":98.8583,"RA_OF_ASC_NODE":242.8831,"ARG_OF_PERICENTER":51.8053,"MEAN_ANOMALY":308.3384,"EPHEMERIS_TYPE":0,"CLASSIFICATION_TYPE":"U","NORAD_CAT_ID":24883,"ELEMENT_SET_NO":999,"REV_AT_EPOCH":50985,"BSTAR":9.366706e-5,"MEAN_MOTION_DOT":2.23e-6,"MEAN_MOTION_DDOT":0},{"OBJECT_NAME":"SL-16 R/B","OBJECT_ID":"1998-043G","EPOCH":"2026-03-19T06:34:16.580928","MEAN_MOTION":14.26051924,"ECCENTRICITY":0.00097097,"INCLINATION":98.8271,"RA_OF_ASC_NODE":31.706,"ARG_OF_PERICENTER":353.1972,"MEAN_ANOMALY":6.9074,"EPHEMERIS_TYPE":0,"CLASSIFICATION_TYPE":"U","NORAD_CAT_ID":25400,"ELEMENT_SET_NO":999,"REV_AT_EPOCH":44035,"BSTAR":3.7974083e-5,"MEAN_MOTION_DOT":4.5e-7,"MEAN_MOTION_DDOT":0},{"OBJECT_NAME":"SL-16 R/B","OBJECT_ID":"1998-045B","EPOCH":"2026-03-19T07:41:33.677088","MEAN_MOTION":14.16195043,"ECCENTRICITY":0.00073931,"INCLINATION":71.0119,"RA_OF_ASC_NODE":161.3222,"ARG_OF_PERICENTER":352.8085,"MEAN_ANOMALY":7.2931,"EPHEMERIS_TYPE":0,"CLASSIFICATION_TYPE":"U","NORAD_CAT_ID":25407,"ELEMENT_SET_NO":999,"REV_AT_EPOCH":42846,"BSTAR":7.7526302e-5,"MEAN_MOTION_DOT":1.06e-6,"MEAN_MOTION_DDOT":0},{"OBJECT_NAME":"ISS (ZARYA)","OBJECT_ID":"1998-067A","EPOCH":"2026-03-19T03:06:36.144000","MEAN_MOTION":15.48370465,"ECCENTRICITY":0.0006229,"INCLINATION":51.6344,"RA_OF_ASC_NODE":25.6919,"ARG_OF_PERICENTER":207.4819,"MEAN_ANOMALY":152.584,"EPHEMERIS_TYPE":0,"CLASSIFICATION_TYPE":"U","NORAD_CAT_ID":25544,"ELEMENT_SET_NO":999,"REV_AT_EPOCH":55779,"BSTAR":0.00017697854,"MEAN_MOTION_DOT":9.105e-5,"MEAN_MOTION_DDOT":0},{"OBJECT_NAME":"CZ-4B R/B","OBJECT_ID":"1999-025C","EPOCH":"2026-03-19T02:50:22.416000","MEAN_MOTION":14.18267189,"ECCENTRICITY":0.00362928,"INCLINATION":98.6606,"RA_OF_ASC_NODE":122.1758,"ARG_OF_PERICENTER":319.1028,"MEAN_ANOMALY":98.9129,"EPHEMERIS_TYPE":0,"CLASSIFICATION_TYPE":"U","NORAD_CAT_ID":25732,"ELEMENT_SET_NO":999,"REV_AT_EPOCH":38950,"BSTAR":3.8915517e-5,"MEAN_MOTION_DOT":3.7e-7,"MEAN_MOTION_DDOT":0},{"OBJECT_NAME":"OKEAN-O","OBJECT_ID":"1999-039A","EPOCH":"2026-03-19T04:22:55.643808","MEAN_MOTION":14.80350428,"ECCENTRICITY":0.00010014,"INCLINATION":97.9422,"RA_OF_ASC_NODE":137.9767,"ARG_OF_PERICENTER":75.766,"MEAN_ANOMALY":284.3663,"EPHEMERIS_TYPE":0,"CLASSIFICATION_TYPE":"U","NORAD_CAT_ID":25860,"ELEMENT_SET_NO":999,"REV_AT_EPOCH":43579,"BSTAR":8.4721849e-5,"MEAN_MOTION_DOT":5.94e-6,"MEAN_MOTION_DDOT":0},{"OBJECT_NAME":"SL-16 R/B","OBJECT_ID":"1999-039B","EPOCH":"2026-03-19T03:41:04.324128","MEAN_MOTION":14.81744191,"ECCENTRICITY":0.00138646,"INCLINATION":97.9944,"RA_OF_ASC_NODE":137.2351,"ARG_OF_PERICENTER":222.8249,"MEAN_ANOMALY":137.1885,"EPHEMERIS_TYPE":0,"CLASSIFICATION_TYPE":"U","NORAD_CAT_ID":25861,"ELEMENT_SET_NO":999,"REV_AT_EPOCH":43826,"BSTAR":6.8761452e-5,"MEAN_MOTION_DOT":4.89e-6,"MEAN_MOTION_DDOT":0},{"OBJECT_NAME":"DELTA 2 R/B","OBJECT_ID":"1999-041E","EPOCH":"2026-03-19T05:03:53.806752","MEAN_MOTION":14.11862874,"ECCENTRICITY":0.0502585,"INCLINATION":51.7608,"RA_OF_ASC_NODE":263.2469,"ARG_OF_PERICENTER":16.5164,"MEAN_ANOMALY":345.1493,"EPHEMERIS_TYPE":0,"CLASSIFICATION_TYPE":"U","NORAD_CAT_ID":25876,"ELEMENT_SET_NO":999,"REV_AT_EPOCH":36437,"BSTAR":0.00012151976,"MEAN_MOTION_DOT":5.1e-6,"MEAN_MOTION_DDOT":0}]
