SL-16 R/B               
1 22803U 93059B   26078.14653523  .00000245  00000+0  14492-3 0  9996
2 22803  70.9931 351.1852 0017984 202.7570 157.2759 14.17233387680877
ARIANE 40 R/B           
1 22830U 93061H   26078.19550720  .00000183  00000+0  82806-4 0  9995
2 22830  98.4897 146.8948 0009632 253.6087 106.4039 14.32865783695463
COSMOS 2278             
1 23087U 94023A   26078.28683980 -.00000169  00000+0 -63404-4 0  9993
2 23087  71.0541 155.0209 0008699 356.7493   3.3571 14.14378816646166
SL-16 R/B               
1 23088U 94023B   26078.25831938  .00000002  00000+0  25596-4 0  9993
2 23088  70.9993  50.7901 0005523 276.2599  83.7894 14.15010092647444
SL-16 R/B               
1 23343U 94074B   26078.32056558  .00000413  00000+0  61890-4 0  9991
2 23343  97.7096 108.7479 0006540 177.2032 193.4785 14.79418800688672
SL-16 R/B               
1 23405U 94077B   26078.16555148  .00000312  00000+0  18384-3 0  9991
2 23405  70.9849 332.5554 0002540 200.9898 159.1121 14.15565426617572
ARIANE 40+ R/B          
1 23561U 95021B   26078.19821866  .00000255  00000+0  95063-4 0  9996
2 23561  98.4479 149.5513 0007922 111.6928 306.9549 14.39779080620615
SL-16 R/B               
1 23705U 95058B   26078.31432608  .00000053  00000+0  51414-4 0  9990
2 23705  71.0221 160.0497 0010343 108.1939 252.0311 14.15500595569213
SL-16 R/B               
1 24298U 96051B   26078.30193160  .00000093  00000+0  76739-4 0  9999
2 24298  70.7598 154.8949 0014266 132.9673 227.2645 14.12418204523008
ORBVIEW 2 (SEASTAR)     
1 24883U 97037A   26078.31555738  .00000223  00000+0  93667-4 0  9992
2 24883  98.8583 242.8831 0002806  51.8053 308.3384 14.35501518509853
SL-16 R/B               
1 25400U 98043G   26078.27380302  .00000045  00000+0  37974-4 0  9995
2 25400  98.8271  31.7060 0009709 353.1972   6.9074 14.26051924440356
SL-16 R/B               
1 25407U 98045B   26078.32052867  .00000106  00000+0  77526-4 0  9997
2 25407  71.0119 161.3222 0007393 352.8085   7.2931 14.16195043428469
ISS (ZARYA)             
1 25544U 98067A   26078.12958500  .00009105  00000+0  17698-3 0  9991
2 25544  51.6344  25.6919 0006229 207.4819 152.5840 15.48370465557798
CZ-4B R/B               
1 25732U 99025C   26078.11831500  .00000037  00000+0  38916-4 0  9996
2 25732  98.6606 122.1758 0036292 319.1028  98.9129 14.18267189389508
OKEAN-O                 
1 25860U 99039A   26078.18258847  .00000594  00000+0  84722-4 0  9991
2 25860  97.9422 137.9767 0001001  75.7660 284.3663 14.80350428435794
SL-16 R/B               
1 25861U 99039B   26078.15352227  .00000489  00000+0  68761-4 0  9994
2 25861  97.9944 137.2351 0013864 222.8249 137.1885 14.81744191438265
DELTA 2 R/B             
1 25876U 99041E   26078.21103943  .00000510  00000+0  12152-3 0  9996
2 25876  51.7608 263.2469 0502585  16.5164 345.1493 14.11862874364371
